start=new Date('2022-05-12T00:00:00.000Z').valueOf();
sats=[{"PERIOD":"95.747","OBJECT_TYPE":"PAYLOAD","TLE_LINE2":"2 48578  53.0555 287.1229 0001629  77.2803 282.8367 15.03958120 54507","CENTER_NAME":"EARTH","OBJECT_ID":"2021-041AB","MEAN_MOTION_DOT":"-0.00002371","APOAPSIS":"555.837","GP_ID":"203309287","OBJECT_NAME":"STARLINK-2232","ELEMENT_SET_NO":"999","SITE":"AFETR","INCLINATION":"53.0555","TLE_LINE1":"1 48578U 21041AB  22131.78323213 -.00002371  00000-0 -15028-3 0  9992","BSTAR":"-0.00015028000000","ARG_OF_PERICENTER":"77.2803","EPOCH":"2022-05-11T18:47:51.256032","FILE":"3441154","LAUNCH_DATE":"2021-05-15","COUNTRY_CODE":"US","SEMIMAJOR_AXIS":"6932.843","RA_OF_ASC_NODE":"287.1229","REV_AT_EPOCH":"5450","RCS_SIZE":"LARGE","MEAN_ELEMENT_THEORY":"SGP4","PERIAPSIS":"553.578","CLASSIFICATION_TYPE":"U","NORAD_CAT_ID":"48578","MEAN_MOTION":"15.03958120","MEAN_ANOMALY":"282.8367","TIME_SYSTEM":"UTC","MEAN_MOTION_DDOT":"0.0000000000000","EPHEMERIS_TYPE":"0","DECAY_DATE":null,"REF_FRAME":"TEME","ECCENTRICITY":"0.00016290"},{"PERIOD":"95.592","OBJECT_TYPE":"PAYLOAD","TLE_LINE2":"2 48579  53.0553 286.7610 0001471  67.7087 292.4058 15.06404623 54510","CENTER_NAME":"EARTH","OBJECT_ID":"2021-041AC","MEAN_MOTION_DOT":"0.00000100","APOAPSIS":"548.218","GP_ID":"203309538","OBJECT_NAME":"STARLINK-2233","ELEMENT_SET_NO":"999","SITE":"AFETR","INCLINATION":"53.0553","TLE_LINE1":"1 48579U 21041AC  22131.85254668  .00000100  00000-0  25608-4 0  9990","BSTAR":"0.00002560800000","EPOCH":"2022-05-11T20:27:40.033152","ARG_OF_PERICENTER":"67.7087","FILE":"3441154","LAUNCH_DATE":"2021-05-15","COUNTRY_CODE":"US","SEMIMAJOR_AXIS":"6925.334","RA_OF_ASC_NODE":"286.7610","REV_AT_EPOCH":"5451","RCS_SIZE":"LARGE","MEAN_ELEMENT_THEORY":"SGP4","PERIAPSIS":"546.181","CLASSIFICATION_TYPE":"U","NORAD_CAT_ID":"48579","MEAN_ANOMALY":"292.4058","MEAN_MOTION":"15.06404623","TIME_SYSTEM":"UTC","MEAN_MOTION_DDOT":"0.0000000000000","EPHEMERIS_TYPE":"0","DECAY_DATE":null,"REF_FRAME":"TEME","ECCENTRICITY":"0.00014710"},{"MEAN_MOTION_DDOT":"0.0000000000000","TIME_SYSTEM":"UTC","ECCENTRICITY":"0.00013240","REF_FRAME":"TEME","DECAY_DATE":null,"EPHEMERIS_TYPE":"0","MEAN_ELEMENT_THEORY":"SGP4","PERIAPSIS":"546.306","RCS_SIZE":"LARGE","REV_AT_EPOCH":"130","RA_OF_ASC_NODE":"261.4818","MEAN_MOTION":"15.06396915","MEAN_ANOMALY":"98.5360","NORAD_CAT_ID":"48580","CLASSIFICATION_TYPE":"U","INCLINATION":"53.0525","TLE_LINE1":"1 48580U 21041AD  22131.91667824  .00011686  00000-0  80218-3 0  9999","SITE":"AFETR","ELEMENT_SET_NO":"999","SEMIMAJOR_AXIS":"6925.358","COUNTRY_CODE":"US","FILE":"3441154","LAUNCH_DATE":"2021-05-15","EPOCH":"2022-05-11T22:00:00.999936","ARG_OF_PERICENTER":"72.1135","BSTAR":"0.00080218000000","MEAN_MOTION_DOT":"0.00011686","TLE_LINE2":"2 48580  53.0525 261.4818 0001324  72.1135  98.5360 15.06396915  1306","OBJECT_ID":"2021-041AD","CENTER_NAME":"EARTH","OBJECT_TYPE":"PAYLOAD","PERIOD":"95.592","OBJECT_NAME":"STARLINK-2234","GP_ID":"203310283","APOAPSIS":"548.140"},{"MEAN_ELEMENT_THEORY":"SGP4","PERIAPSIS":"546.259","RA_OF_ASC_NODE":"251.4719","RCS_SIZE":"LARGE","REV_AT_EPOCH":"130","MEAN_MOTION":"15.06395469","MEAN_ANOMALY":"326.0397","CLASSIFICATION_TYPE":"U","NORAD_CAT_ID":"48581","TIME_SYSTEM":"UTC","MEAN_MOTION_DDOT":"0.0000000000000","REF_FRAME":"TEME","ECCENTRICITY":"0.00013980","DECAY_DATE":null,"EPHEMERIS_TYPE":"0","MEAN_MOTION_DOT":"-0.00010754","TLE_LINE2":"2 48581  53.0519 251.4719 0001398  59.5644 326.0397 15.06395469  1306","OBJECT_ID":"2021-041AE","CENTER_NAME":"EARTH","PERIOD":"95.592","OBJECT_TYPE":"PAYLOAD","OBJECT_NAME":"STARLINK-2235","APOAPSIS":"548.196","GP_ID":"203309038","SITE":"AFETR","INCLINATION":"53.0519","TLE_LINE1":"1 48581U 21041AE  22131.91667824 -.00010754  00000-0 -70425-3 0  9996","ELEMENT_SET_NO":"999","LAUNCH_DATE":"2021-05-15","FILE":"3441154","SEMIMAJOR_AXIS":"6925.362","COUNTRY_CODE":"US","ARG_OF_PERICENTER":"59.5644","EPOCH":"2022-05-11T22:00:00.999936","BSTAR":"-0.00070425000000"},{"ELEMENT_SET_NO":"999","TLE_LINE1":"1 48582U 21041AF  22131.91667824 -.00004036  00000-0 -25212-3 0  9997","INCLINATION":"53.0535","SITE":"AFETR","BSTAR":"-0.00025212000000","ARG_OF_PERICENTER":"59.6258","EPOCH":"2022-05-11T22:00:00.999936","COUNTRY_CODE":"US","SEMIMAJOR_AXIS":"6925.313","FILE":"3441154","LAUNCH_DATE":"2021-05-15","OBJECT_TYPE":"PAYLOAD","PERIOD":"95.591","OBJECT_ID":"2021-041AF","TLE_LINE2":"2 48582  53.0535 251.4569 0001578  59.6258 146.0323 15.06411660  1301","CENTER_NAME":"EARTH","MEAN_MOTION_DOT":"-0.00004036","GP_ID":"203308788","APOAPSIS":"548.271","OBJECT_NAME":"STARLINK-2236","MEAN_MOTION_DDOT":"0.0000000000000","TIME_SYSTEM":"UTC","EPHEMERIS_TYPE":"0","DECAY_DATE":null,"ECCENTRICITY":"0.00015780","REF_FRAME":"TEME","REV_AT_EPOCH":"130","RCS_SIZE":"LARGE","RA_OF_ASC_NODE":"251.4569","PERIAPSIS":"546.085","MEAN_ELEMENT_THEORY":"SGP4","NORAD_CAT_ID":"48582","CLASSIFICATION_TYPE":"U","MEAN_ANOMALY":"146.0323","MEAN_MOTION":"15.06411660"},{"MEAN_ANOMALY":"291.5529","MEAN_MOTION":"15.06411721","NORAD_CAT_ID":"48583","CLASSIFICATION_TYPE":"U","RA_OF_ASC_NODE":"299.8225","RCS_SIZE":"LARGE","REV_AT_EPOCH":"5427","PERIAPSIS":"546.194","MEAN_ELEMENT_THEORY":"SGP4","DECAY_DATE":null,"EPHEMERIS_TYPE":"0","REF_FRAME":"TEME","ECCENTRICITY":"0.00014210","TIME_SYSTEM":"UTC","MEAN_MOTION_DDOT":"0.0000000000000","APOAPSIS":"548.162","GP_ID":"203276504","OBJECT_NAME":"STARLINK-2237","PERIOD":"95.591","OBJECT_TYPE":"PAYLOAD","MEAN_MOTION_DOT":"0.00005212","CENTER_NAME":"EARTH","TLE_LINE2":"2 48583  53.0538 299.8225 0001421  68.5611 291.5529 15.06411721 54275","OBJECT_ID":"2021-041AG","ARG_OF_PERICENTER":"68.5611","EPOCH":"2022-05-11T04:04:26.183136","BSTAR":"0.00036839000000","FILE":"3440740","LAUNCH_DATE":"2021-05-15","SEMIMAJOR_AXIS":"6925.313","COUNTRY_CODE":"US","ELEMENT_SET_NO":"999","SITE":"AFETR","INCLINATION":"53.0538","TLE_LINE1":"1 48583U 21041AG  22131.16974749  .00005212  00000-0  36839-3 0  9994"},{"COUNTRY_CODE":"US","SEMIMAJOR_AXIS":"6925.361","LAUNCH_DATE":"2021-05-15","FILE":"3441154","BSTAR":"-0.00008394400000","EPOCH":"2022-05-11T20:58:12.213408","ARG_OF_PERICENTER":"60.1417","INCLINATION":"53.0558","TLE_LINE1":"1 48584U 21041AH  22131.87375247 -.00001531  00000-0 -83944-4 0  9993","SITE":"AFETR","ELEMENT_SET_NO":"999","OBJECT_NAME":"STARLINK-2238","GP_ID":"203309783","APOAPSIS":"548.279","OBJECT_ID":"2021-041AH","TLE_LINE2":"2 48584  53.0558 296.6646 0001520  60.1417 299.9723 15.06395934 54378","CENTER_NAME":"EARTH","MEAN_MOTION_DOT":"-0.00001531","OBJECT_TYPE":"PAYLOAD","PERIOD":"95.592","ECCENTRICITY":"0.00015200","REF_FRAME":"TEME","EPHEMERIS_TYPE":"0","DECAY_DATE":null,"MEAN_MOTION_DDOT":"0.0000000000000","TIME_SYSTEM":"UTC","CLASSIFICATION_TYPE":"U","NORAD_CAT_ID":"48584","MEAN_ANOMALY":"299.9723","MEAN_MOTION":"15.06395934","PERIAPSIS":"546.173","MEAN_ELEMENT_THEORY":"SGP4","REV_AT_EPOCH":"5437","RCS_SIZE":"LARGE","RA_OF_ASC_NODE":"296.6646"},{"RA_OF_ASC_NODE":"297.2189","REV_AT_EPOCH":"5435","RCS_SIZE":"LARGE","PERIAPSIS":"546.238","MEAN_ELEMENT_THEORY":"SGP4","NORAD_CAT_ID":"48585","CLASSIFICATION_TYPE":"U","MEAN_ANOMALY":"260.9967","MEAN_MOTION":"15.06391046","TIME_SYSTEM":"UTC","MEAN_MOTION_DDOT":"0.0000000000000","EPHEMERIS_TYPE":"0","DECAY_DATE":null,"REF_FRAME":"TEME","ECCENTRICITY":"0.00014480","PERIOD":"95.593","OBJECT_TYPE":"PAYLOAD","TLE_LINE2":"2 48585  53.0547 297.2189 0001448  99.1186 260.9967 15.06391046 54356","CENTER_NAME":"EARTH","OBJECT_ID":"2021-041AJ","MEAN_MOTION_DOT":"0.00000226","APOAPSIS":"548.244","GP_ID":"203308539","OBJECT_NAME":"STARLINK-2240","ELEMENT_SET_NO":"999","SITE":"AFETR","TLE_LINE1":"1 48585U 21041AJ  22131.75211758  .00000226  00000-0  34085-4 0  9997","INCLINATION":"53.0547","BSTAR":"0.00003408500000","ARG_OF_PERICENTER":"99.1186","EPOCH":"2022-05-11T18:03:02.958912","FILE":"3441154","LAUNCH_DATE":"2021-05-15","COUNTRY_CODE":"US","SEMIMAJOR_AXIS":"6925.376"},{"OBJECT_TYPE":"PAYLOAD","PERIOD":"95.593","TLE_LINE2":"2 48586  53.0549 296.6506 0001541  73.6975 286.4183 15.06392606 54370","OBJECT_ID":"2021-041AK","CENTER_NAME":"EARTH","MEAN_MOTION_DOT":"-0.00000055","GP_ID":"203309288","APOAPSIS":"548.303","OBJECT_NAME":"STARLINK-2241","ELEMENT_SET_NO":"999","INCLINATION":"53.0549","TLE_LINE1":"1 48586U 21041AK  22131.87743735 -.00000055  00000-0  15181-4 0  9993","SITE":"AFETR","BSTAR":"0.00001518100000","ARG_OF_PERICENTER":"73.6975","EPOCH":"2022-05-11T21:03:30.587040","COUNTRY_CODE":"US","SEMIMAJOR_AXIS":"6925.371","LAUNCH_DATE":"2021-05-15","FILE":"3441154","REV_AT_EPOCH":"5437","RCS_SIZE":"LARGE","RA_OF_ASC_NODE":"296.6506","PERIAPSIS":"546.169","MEAN_ELEMENT_THEORY":"SGP4","NORAD_CAT_ID":"48586","CLASSIFICATION_TYPE":"U","MEAN_ANOMALY":"286.4183","MEAN_MOTION":"15.06392606","MEAN_MOTION_DDOT":"0.0000000000000","TIME_SYSTEM":"UTC","EPHEMERIS_TYPE":"0","DECAY_DATE":null,"ECCENTRICITY":"0.00015410","REF_FRAME":"TEME"},{"SITE":"AFETR","TLE_LINE1":"1 48587U 21041AL  22131.88112573 -.00001052  00000-0 -51773-4 0  9991","INCLINATION":"53.0584","ELEMENT_SET_NO":"999","FILE":"3441154","LAUNCH_DATE":"2021-05-15","SEMIMAJOR_AXIS":"6925.378","COUNTRY_CODE":"US","ARG_OF_PERICENTER":"102.5742","EPOCH":"2022-05-11T21:08:49.263072","BSTAR":"-0.00005177300000","MEAN_MOTION_DOT":"-0.00001052","CENTER_NAME":"EARTH","TLE_LINE2":"2 48587  53.0584 296.6134 0001413 102.5742 257.5405 15.06390514 54371","OBJECT_ID":"2021-041AL","PERIOD":"95.593","OBJECT_TYPE":"PAYLOAD","OBJECT_NAME":"STARLINK-2242","APOAPSIS":"548.221","GP_ID":"203309539","TIME_SYSTEM":"UTC","MEAN_MOTION_DDOT":"0.0000000000000","REF_FRAME":"TEME","ECCENTRICITY":"0.00014130","DECAY_DATE":null,"EPHEMERIS_TYPE":"0","MEAN_ELEMENT_THEORY":"SGP4","PERIAPSIS":"546.264","RA_OF_ASC_NODE":"296.6134","RCS_SIZE":"LARGE","REV_AT_EPOCH":"5437","MEAN_MOTION":"15.06390514","MEAN_ANOMALY":"257.5405","CLASSIFICATION_TYPE":"U","NORAD_CAT_ID":"48587"}];
